Name;	Street;	Zip;	City;	Longitude;	Latitude;	Phone;	Web;	PhotoLink;	Monday;	Tuesday;	Wednesday;	Thursday;	Friday;	Saturday;	Sunday
Gratowisko - punkt selektywnego zbierania odpadów;	Wrzesińska 12;	61-021;	Poznań;	52.418953599999995;	16.978634;	616110811;	https://www.zzo.pl/pl/o-nas/informacje-ogolne/10-pl/zakres-dzialalnosci/6-punkt-selektywnego-zbierania-odpadow-komunalnych-gratowisko;	https://lh5.googleusercontent.com/p/AF1QipN5TjD1757pNYnwI7j9PBbUAnMKOjfp7GNA5sqY=s0;	10:00–18:00;	08:00–16:00;	10:00–18:00;	08:00–16:00;	10:00–18:00;	08:00–14:00;	Zamknięte
Punkt Selektywnej Zbiórki Odpadów Komunalnych dla mieszkańców Gminy Środa Wielkopolska;	Nad Strugą 7;	63-000;	Środa Wielkopolska;	52.214954;	17.28614349999999;	null;	http://uk-sroda.pl;	https://lh5.googleusercontent.com/p/AF1QipMAJuA5pjVzreSgAIutRZJt2wQYrxnBdA2UGQ6p=s0;	06:00–20:00;	06:00–20:00;	06:00–20:00;	06:00–20:00;	06:00–20:00;	06:00–13:00;	Zamknięte
Punkt Selektywnego Zbierania Odpadów Komunalnych w Czołowie;	null;	62-035;	Czołowo;	52.219525499999996;	17.056598;	500173983;	https://www2.kornik.pl/odpady/Kontakt_3/;	null;	07:00–16:30;	Zamknięte;	09:00–16:30;	09:00–16:30;	09:00–16:30;	08:00–14:00;	Zamknięte
PSZOK Punkt selektywnej zbiórki odpadów komunalnych;	Lotnicza 33a;	63-410;	Ostrów Wielkopolski;	51.660798;	17.796199;	627372017;	null;	https://lh5.googleusercontent.com/p/AF1QipNWng9BCWLBh5jR2Bm6JwgUJ0NMYDjFfF1l4D-R=s0;	Zamknięte;	07:30–16:30;	07:30–16:30;	07:30–16:30;	07:30–16:30;	09:00–13:00;	Zamknięte
Punkt Selektywnej Zbiórki Odpadów Komunalnych – PSZOK w Plewiskach,;	Kolejowa;	62-064;	Plewiska;	52.3701544;	16.804526;	null;	https://www.komorniki.pl/asp/pl_start.asp?pol=2&typ=14&sub=21&subsub=84&menu=334&strona=1;	https://lh5.googleusercontent.com/p/AF1QipPyy6Lj-MlTSD95zdB5LRRmsVEWhoT9UgYE0ool=s0;	15:00–18:00;	15:00–18:00;	09:00–12:00;	15:00–18:00;	15:00–19:00;	10:00–14:00;	Zamknięte
PSZOK dla gminy Suchy Las;	Golęczewska 22a;	62-001;	Chludowo;	52.550289899999996;	16.82898;	691150250;	http://zgksuchylas.eu/index.php/pszok/stacjonarny/zasady-odbioru;	https://lh5.googleusercontent.com/p/AF1QipOCjBjfR16WyNKmVR8T5QzcBVR1w2HvvxiJuK5t=s0;	08:00–17:00;	08:00–15:00;	08:00–15:00;	08:00–15:00;	08:00–15:00;	09:00–12:00;	Zamknięte
Składowisko Odpadów Komunalnych Miasta Poznania;	Meteorytowa 1;	62-002;	Suchy Las;	52.4963202;	16.884705;	618119667;	http://www.zzo.pl/;	https://lh5.googleusercontent.com/p/AF1QipNSRhDouu6ceKC0jBC5bS8CzK7E1Kt9RSyUlMnh=s0;	10:00–18:00;	08:00–16:00;	10:00–18:00;	08:00–16:00;	10:00–18:00;	08:00–14:00;	Zamknięte
Wielkopolskie Centrum Recyklingu - Spółka z o.o. w Jarocinie;	Mariusza Małynicza 1;	63-200;	null;	51.9718897;	17.53675969999999;	627472456;	http://www.wcr-jarocin.pl/;	https://lh5.googleusercontent.com/p/AF1QipPLAW48n7NBzHhLjVNhpRJV_-jP2-IShqTxP4Vi=s0;	06:00–21:00;	06:00–21:00;	06:00–21:00;	06:00–21:00;	06:00–21:00;	08:00–14:00;	Zamknięte
Gratowisko- Punkt Selektywnego Zbierania Odpadów Komunalnych;	28 Czerwca 1956 r. 284;	61-472;	Poznań;	52.374943699999996;	16.90394599999999;	618332212;	http://www.odpady.poznan.pl/index.php?rsl=1&&pid=11111244;	https://lh5.googleusercontent.com/p/AF1QipOVqczCNQfmCKA_uCn42SS5phQHBgZmZIlGRh1w=s0;	10:00–18:00;	08:00–16:00;	10:00–18:00;	08:00–16:00;	10:00–18:00;	08:00–14:00;	Zamknięte
Punkt Selektywnej Zbiórki Odpadów Komunalnych;	Mateuszewo 8;	63-100;	Mateuszewo;	52.134005099999996;	17.105077;	null;	http://zgo-jarocin.pl/index.php/pszok-srem/;	https://lh5.googleusercontent.com/p/AF1QipNi8An3t1xQr_F0AM3ANYdg-G73ycVjXYAPBvOh=s0;	Zamknięte;	09:00–17:00;	09:00–17:00;	09:00–17:00;	09:00–17:00;	09:00–13:00;	Zamknięte
Gratowisko PSZOK;	Meteorytowa 1;	62-002;	Suchy Las;	52.497293199999994;	16.892255;	618119667;	https://www.zzo.pl/pl/zakres-dzialalnosci/pszok-punkt-selektywnego-zbierania-odpadow-komunalnych;	https://lh5.googleusercontent.com/p/AF1QipOjbxJhETbbAzD__t1UQcN4rpaBx6XY4Rm63ODH=s0;	10:00–18:00;	08:00–16:00;	10:00–18:00;	08:00–16:00;	10:00–18:00;	08:00–14:00;	Zamknięte
PSZOK;	Nadwarciańska 11b;	62-040;	Puszczykowo;	52.263890499999995;	16.873466;	null;	null;	null;	Zamknięte;	10:00–16:00;	15:00–19:00;	Zamknięte;	15:00–19:00;	10:00–16:00;	Zamknięte
Punkt Selektywnej Zbiórki Odpadów Komunalnych;	Topolowa 6;	62-090;	Bytkowo;	52.519426499999994;	16.763165;	null;	null;	null;	11:00–16:00;	11:00–17:00;	11:00–16:00;	11:00–17:00;	Zamknięte;	08:00–15:00;	Zamknięte
PSZOK Punkt Selektywnego Zbierania Odpadów Komunalnych w Zagorzynie;	Zagorzyn 57A;	62-812;	Jastrzębniki;	51.810131;	18.022746;	690348646;	null;	https://lh5.googleusercontent.com/p/AF1QipN5BrALuLqp71nFdbbW5EnSlR6cCVaI7TlzOuIe=s0;	Zamknięte;	Zamknięte;	14:00–17:00;	Zamknięte;	Zamknięte;	08:00–16:00;	Zamknięte
PSZOK Piła Punkt Selektywnej Zbiórki Odpadów Komunalnych;	Fritsa Philipsa;	64-920;	Piła;	53.1653653;	16.757494;	668860389;	null;	https://lh5.googleusercontent.com/p/AF1QipMCXk-JH0x6q6GamR-sIYjx2gYC567x-0VaNqsK=s0;	10:00–18:00;	10:00–18:00;	10:00–18:00;	10:00–18:00;	10:00–18:00;	10:00–14:00;	Zamknięte
MZO S.A. Zakład Oczyszczania i Gospodarki Odpadami;	Staroprzygodzka 138;	63-400;	Ostrów Wielkopolski;	51.6184806;	17.797828;	627353563;	https://mzo.com.pl;	https://lh5.googleusercontent.com/p/AF1QipP9PEW384Xn9tKcvawlGwzc1bLwnCqWYOocpe-N=s0;	null;	null;	null;	null;	null;	null;	null
Punkt Selektywnej Zbiórki Odpadów Komunalnych;	Kościańska 32;	62-065;	Grodzisk Wielkopolski;	52.2198996;	16.38275669999999;	null;	null;	https://lh5.googleusercontent.com/p/AF1QipPJZ6qbcM9ROXesrQ1mLFaPnAGkqs9hvtMMWaT7=s0;	Zamknięte;	15:00–19:00;	15:00–19:00;	Zamknięte;	15:00–19:00;	10:00–16:00;	Zamknięte
Składowisko Odpadów;	Unnamed Road;	62-010;	null;	52.4614322;	17.305561;	618177031;	https://zk-pobiedziska.pl/wydzialy/skladowisko-odpadow/;	https://lh5.googleusercontent.com/p/AF1QipNbEdpin5PKPm6DoRh9g5_NRQCdnNrjWVBx0NaQ=s0;	10:00–18:00;	Zamknięte;	Zamknięte;	09:00–15:00;	10:00–18:00;	08:00–14:00;	Zamknięte
PSZOK;	Unnamed Road;	64-500;	null;	52.642323;	16.59208;	612921808;	http://www.szamotuly.pl/pl/aktualnosci/pszok.html;	null;	Zamknięte;	09:00–17:00;	09:00–17:00;	09:00–17:00;	09:00–17:00;	10:00–14:00;	Zamknięte
Składowisko Odpadów Komunalnych;	Świerkowa 17;	62-020;	Rabowice;	52.3801378;	17.111890;	618173421;	https://spk.swarzedz.pl/pszok/;	null;	07:00–17:00;	07:00–17:00;	07:00–17:00;	07:00–17:00;	07:00–17:00;	Zamknięte;	Zamknięte
Punkty Selektywnego Zbierania Odpadów Komunalnych;	Wrzesińska 12;	61-021;	Poznań;	52.4189826;	16.979133;	616110811;	null;	null;	09:00–15:00;	09:00–15:00;	09:00–15:00;	09:00–15:00;	09:00–15:00;	Zamknięte;	Zamknięte
Mobilny PSZOK 3.08, godz. 8.00-8.20;	Unnamed Road;	61-245;	Poznań;	52.3877642;	17.00809;	null;	http://goap.org.pl/;	null;	null;	null;	null;	null;	null;	null;	null
PSZOK Kalisz;	Piwonicka 6;	62-800;	Kalisz;	51.7395413;	18.07192509999999;	625049766;	http://www.kalisz.pl/;	https://lh5.googleusercontent.com/p/AF1QipNWng9BCWLBh5jR2Bm6JwgUJ0NMYDjFfF1l4D-R=s0;	Zamknięte;	10:00–17:00;	Zamknięte;	10:00–17:00;	Zamknięte;	08:00–15:00;	Zamknięte
Miejski Zakład Gospodarki Odpadami Komunalnymi Sp. z o.o.;	Sulańska 13;	62-510;	Konin;	52.2776201;	18.278286;	632468179;	https://www.mzgok.konin.pl;	https://lh5.googleusercontent.com/p/AF1QipNHXj5n00VRVHhHotJoMsdDfUXjFXObSiXmZC04=s0;	06:00–21:30;	06:00–21:30;	06:00–21:30;	06:00–21:30;	06:00–21:30;	06:00–13:30;	Zamknięte
PSZOK Utylizacja bezpłatna odpadów dla mieszkańców Konina;	null;	62-500;	Konin;	52.2089676;	18.232036;	632428276;	null;	https://lh5.googleusercontent.com/p/AF1QipMjZW_eaQ1hfnLJVHeLR4ltc-Jtz4S_VjIRmELR=s0;	08:00–15:00;	08:00–15:00;	08:00–15:00;	08:00–15:00;	08:00–15:00;	Zamknięte;	Zamknięte
Punkt Selektywnego Zbierania Odpadów Komunalnych;	Osiniec 6;	62-200;	Gniezno;	52.518543799999996;	17.614209;	null;	https://pszok.gniezno.eu/;	https://lh5.googleusercontent.com/p/AF1QipNss711xSkk0dgYqroWc4_AyUp_uAZXJp1YLt9n=s0;	Zamknięte;	11:00–18:00;	Zamknięte;	11:00–18:00;	11:00–18:00;	08:00–14:00;	Zamknięte
Miejski Zakład Oczyszczania Sp. z o.o.;	Saperska 23;	64-100;	Leszno;	51.8281707;	16.586952;	655259282;	http://www.mzoleszno.com.pl/;	null;	07:00–18:00;	07:00–18:00;	07:00–18:00;	07:00–18:00;	07:00–18:00;	08:00–15:00;	Zamknięte
Kom-Lub sp. z o.o.;	Niepodległości 11;	62-030;	Luboń;	52.350593599999996;	16.891453;	618130551;	http://www.kom-lub.com.pl/;	https://lh5.googleusercontent.com/p/AF1QipNHcCjirdlzxPc-Uj2vEpxn5e1MBjHWBa0IbhAJ=s0;	07:00–15:00;	07:00–15:00;	07:00–15:00;	07:00–15:00;	07:00–15:00;	Zamknięte;	Zamknięte
PUK Sp. z o.o. GPSZOK (Gminny Punkt Selektywnej Zbiórki Odpadów Komunalnych);	Sikorskiego 38;	62-300;	Września;	52.321567599999995;	17.593672;	508088381;	null;	https://lh5.googleusercontent.com/p/AF1QipOORdaitBIPDQhcVpnsXbeiqnPjYl7MmhXQG9Hk=s0;	09:00–17:00;	09:00–17:00;	09:00–17:00;	09:00–17:00;	09:00–17:00;	07:00–12:00;	Zamknięte
Stena Recycling Sp. z o.o.;	Rabowicka 2;	62-020;	Swarzędz;	52.401767799999995;	17.086309;	724000405;	https://www.stenarecycling.pl/kontakt/swarzdz/swarzdz/;	https://lh5.googleusercontent.com/p/AF1QipP_BkKK6et61l0cubg8E01OY17wDY3oXVsAEFHc=s0;	07:00–15:00;	07:00–15:00;	07:00–15:00;	07:00–15:00;	07:00–15:00;	Zamknięte;	Zamknięte
WYWÓZ NIECZYSTOŚCI PŁYNNYCH - HENRYK WABIŃSKI;	Piaski;	62-020;	Swarzędz;	52.4079834;	17.07451769999999;	;	791 810 810http://www.wywoz-nieczystosci.pl/;	null;	06:00–18:30;	06:00–18:30;	06:00–18:30;	06:00–18:30;	06:00–18:30;	06:00–16:00;	Zamknięte
Punkt Selektywnej Zbiórki Odpadów Komunalnych PSZOK;	Unnamed Road;	62-070;	Dopiewo;	52.3372019;	16.67105549999999;	null;	https://www.dopiewo.pl/aktualnosci/2016-03-17/pszok-w-dopiewie;	null;	15:00–19:00;	15:00–19:00;	15:00–19:00;	15:00–19:00;	15:00–19:00;	11:00–15:00;	Zamknięte
eko-odpady.pl;	Żwirki i Wigury 25;	62-020;	Swarzędz;	52.412255699999996;	17.089318;	606288722;	http://eko-odpady.pl/;	null;	null;	null;	null;	null;	null;	null;	null
PSZOK Mosina;	Sowiniecka 6G;	62-050;	Mosina;	52.241129099999995;	16.853749;	618132321;	null;	null;	11:00–19:00;	Zamknięte;	11:00–19:00;	11:00–19:00;	11:00–19:00;	09:00–17:00;	Zamknięte
Punkt Selektywnego Zbierania Odpadów Komunalnych w Krotoszynie;	Ceglarska;	63-700;	Krotoszyn;	51.6835026;	17.449575;	534262960;	http://eko7.krotoszyn.pl/index.php/punkty-selektywnego-zbierania-odpadow;	https://lh5.googleusercontent.com/p/AF1QipNswWfxMA2dG1WnZF5JmUAw1639CBKLbkhKtH4Z=s0;	08:00–16:00;	Zamknięte;	08:00–16:00;	Zamknięte;	08:00–16:00;	Zamknięte;	Zamknięte
Związek Międzygminny „EKO SIÓDEMKA”;	Kołłątaja 7;	63-700;	Krotoszyn;	51.6920005;	17.43139009999999;	627226632;	http://eko7.krotoszyn.pl/index.php;	null;	07:30–15:30;	07:30–15:30;	07:30–15:30;	07:30–15:30;	07:30–15:30;	Zamknięte;	Zamknięte
Przedsiębiorstwo Gospodarki Komunalnej i Mieszkaniowej;	Polna 4;	62-700;	Turek;	52.0167662;	18.526936;	632800321;	http://www.pgkim-turek.pl/;	https://lh5.googleusercontent.com/p/AF1QipMbiHhcqmNFEUj78BbXFg5nwnSymXSHKSstOTY4=s0;	10:00–18:00;	Zamknięte;	10:00–18:00;	Zamknięte;	Zamknięte;	07:00–12:00;	Zamknięte
Przedsiębiorstwo Gospodarki Komunalnej i Mieszkaniowej. Sp. z o.o. Oczyszczalnia ścieków;	Graniczna 1;	62-700;	Turek;	52.025470999999996;	18.52251;	632785723;	null;	null;	null;	null;	null;	null;	null;	null;	null
Schronisko dla Bezdomnych Zwierząt;	null;	62-700;	Turek;	52.0268345;	18.524498;	null;	null;	null;	07:00–15:00;	07:00–15:00;	07:00–15:00;	07:00–15:00;	07:00–15:00;	07:00–15:00;	07:00–15:00
Zakład Usług Komunalnych;	Kasztanowa 18;	63-200;	Jarocin;	51.975432;	17.499547;	627473680;	http://www.zuk-jarocin.pl/;	null;	08:00–16:00;	08:00–16:00;	08:00–16:00;	08:00–16:00;	08:00–16:00;	Zamknięte;	Zamknięte
ZGO-NOVA Sp. z o. o.;	im. Mariusza Małynicza 1;	63-200;	Witaszyczki;	51.973121199999994;	17.535652;	625942672;	http://zgo-nova.pl/;	null;	08:00–16:00;	08:00–16:00;	08:00–16:00;	08:00–16:00;	08:00–16:00;	Zamknięte;	Zamknięte
Remondis Sanitech Poznań Sp. z o.o. Oddział;	Skocka 13A;	62-100;	Wągrowiec;	52.799864899999996;	17.192147;	null;	null;	null;	10:00–18:00;	10:00–18:00;	10:00–18:00;	10:00–18:00;	10:00–18:00;	09:00–13:00;	Zamknięte
Miejski Zakład Usług Komunalnych Sp. z o.o.;	Dąbska 40K;	62-600;	Koło;	52.199177;	18.65058;	632722139;	http://www.mzuk.kolo.pl/bip/kontakt.html;	null;	Zamknięte;	12:00–17:00;	Zamknięte;	12:00–17:00;	Zamknięte;	Zamknięte;	Zamknięte
PreZero Service Centrum Sp. z o.o. - Oddział Koło;	Sosnowa 1;	62-600;	Koło;	52.220504;	18.61380;	null;	null;	null;	07:00–15:00;	07:00–15:00;	07:00–15:00;	07:00–15:00;	07:00–15:00;	Zamknięte;	Zamknięte
Stacja Przeładunkowa Odpadów Komunalnych w Rawiczu;	null;	63-900;	Rawicz;	51.625540799999996;	16.891292;	506181616;	null;	https://lh5.googleusercontent.com/p/AF1QipPBrWDwv3iLwAwmMkMR01-RZmvkKE3sDuDK0qXk=s0;	06:00–18:00;	06:00–18:00;	06:00–18:00;	06:00–18:00;	06:00–18:00;	08:00–15:00;	Zamknięte
Miejski Zakład Usług Komunalnych Sp. z o.o. \\u0026 Novago Złotów Sp. z o.o;	Szpitalna 38;	77-400;	Złotów;	53.3543624;	17.04698179999999;	672633011;	https://novago-zlotow.pl/punkty-selektywnej-zbiorki-odpadow-komunalnych/;	null;	07:00–15:00;	07:00–15:00;	07:00–15:00;	07:00–15:00;	07:00–15:00;	Zamknięte;	Zamknięte
PSZOK Punkt Selektywnej Zbiórki Odpadów Komunalnych Jastrowie;	null;	64-915;	Jastrowie;	53.4105415;	16.82516279999999;	668860393;	null;	null;	09:00–17:00;	Zamknięte;	09:00–17:00;	Zamknięte;	Zamknięte;	09:00–17:00;	Zamknięte
Związek Gmin Krajny w Złotowie;	Wawrzyniaka 4A;	77-400;	Złotów;	53.3622168;	17.034617;	673533941;	http://zgk.zlotow.pl/;	null;	07:00–16:00;	07:00–15:00;	07:00–15:00;	07:00–15:00;	07:00–14:00;	Zamknięte;	Zamknięte
Sanitoy Złotów;	aleja Rodła 45;	77-400;	Złotów;	53.376827899999995;	17.02391;	605956907;	http://sanitoy.com.pl/;	https://lh5.googleusercontent.com/p/AF1QipMc0vILBlHDLNG82y8IsnUeuloyTWYK777DBQHI=s0;	null;	null;	null;	null;	null;	null;	null
Zakład Zagospodarowania Odpadów w Stawnicy;	null;	77-400;	Stawnica;	53.381001999999995;	17.060366;	734175069;	http://mzuk-zlotow.pl/;	null;	08:00–16:00;	08:00–16:00;	08:00–16:00;	08:00–16:00;	08:00–16:00;	Zamknięte;	Zamknięte
Zakład Oczyszczania Miasta \\\"ŁAD\\\";	Młyńska 3;	64-800;	Chodzież;	52.985138;	16.918876;	672821789;	null;	null;	08:00–14:00;	08:00–14:00;	08:00–14:00;	08:00–14:00;	08:00–14:00;	Zamknięte;	Zamknięte
Zakład Oczyszczania Miasta s.c.;	Fabryczna 4;	64-800;	Chodzież;	52.995907499999994;	16.908606;	501681530;	http://www.zom-chodziez.pl/;	null;	07:00–15:00;	07:00–15:00;	07:00–15:00;	07:00–15:00;	07:00–15:00;	Zamknięte;	Zamknięte
PSZOK Oborniki – Punkt Selektywnego Zbierania Odpadów Komunalnych;	Lipowa 19;	64-600;	Oborniki;	52.6457822;	16.818822;	612961206;	null;	null;	09:00–17:00;	Zamknięte;	09:00–17:00;	Zamknięte;	09:00–17:00;	08:00–13:00;	Zamknięte
Przedsiębiorstwo Komunalne Sp. z o.o.;	Polna 71;	63-300;	Pleszew;	51.8914194;	17.813994;	627421664;	https://pkpleszew.pl/;	https://lh5.googleusercontent.com/p/AF1QipP-Y5BwJ1e0qFEM_CCyny9LTIMEYhEmIMiv_78q=s0;	07:00–15:00;	07:00–15:00;	07:00–15:00;	07:00–15:00;	07:00–15:00;	Zamknięte;	Zamknięte
Stacjonarny Punkt Selektywnego Zbierania Odpadów Komunalnych (SPSZOK);	Polna 71;	63-300;	Pleszew;	51.891423599999996;	17.81473519999999;	;	62 741 23 03https://pkpleszew.pl;	null;	06:00–22:00;	06:00–22:00;	06:00–22:00;	06:00–22:00;	06:00–22:00;	06:00–15:00;	Zamknięte
PSZOK Punkt Selektywnej Zbiórki Odpadów Komunalnych w Trzciance;	null;	64-980;	Trzcianka;	53.0271014;	16.46343719999999;	672163313;	http://kombud.org.pl/pszok/;	https://lh5.googleusercontent.com/p/AF1QipPwcOOCpbO0RZvL7aodCK-tnWOTE32MbXMzZvSn=s0;	09:00–17:00;	09:00–17:00;	09:00–17:00;	09:00–17:00;	09:00–17:00;	09:00–14:00;	Zamknięte
EKO-REGION Sp.z.o.o Składowisko Odpadów Ostrzeszów;	Ceglarska;	63-500;	Ostrzeszów;	51.439588199999996;	17.947401;	null;	null;	null;	null;	null;	null;	null;	null;	null;	null
Zakład Zagospodarowania Odpadów Olszowa Sp. z o.o.;	Bursztynowa 55;	63-600;	Olszowa;	51.311481;	18.04287;	627821190;	https://www.zzo-olszowa.pl/;	https://lh5.googleusercontent.com/p/AF1QipOTno1rB6RUCBZDq6AiGpe5F5vs3dni3zOVqjJW=s0;	07:00–18:00;	07:00–18:00;	07:00–18:00;	07:00–18:00;	07:00–18:00;	09:00–14:00;	Zamknięte
PPUH PETER;	Wrocławska 61;	63-600;	Kępno;	51.2828488;	17.96502049999999;	627824835;	http://peter-kepno.pl;	https://lh5.googleusercontent.com/p/AF1QipMhd5XhwG5H-Mq4jPTFnstP-zILaOhJbt3BTFY=s0;	07:00–16:00;	07:00–16:00;	07:00–16:00;	07:00–16:00;	07:00–16:00;	Zamknięte;	Zamknięte
PSZOK Długołęka, ul. Komunalna;	55-093;	Bielawa;	null;	51.1565011;	17.23996679999999;	713988036;	https://zuk-kielczow.pl/punkt-selektywnej-zbiorki-odpadow-komunalnych/;	https://lh5.googleusercontent.com/p/AF1QipO50m-U8UZpYWqAhiWWRwe5EPXRJqmriB5br6-B=s0;	Zamknięte;	Zamknięte;	Zamknięte;	11:00–17:00;	Zamknięte;	08:00–15:00;	Zamknięte
PSZOK Milicz;	Stawiec 40b;	56-300;	Milicz;	51.5569492;	17.270263;	667661131;	null;	null;	08:00–16:00;	08:00–16:00;	08:00–16:00;	08:00–16:00;	08:00–16:00;	Zamknięte;	Zamknięte
Punkt Selektywnej Zbiórki Odpadów;	Leśna 47;	55-114;	Mienice;	51.2614387;	16.991630;	501397660;	https://www.wiszniamala.pl/dla-mieszkancow/ochrona-srodowiska/gospodarka-odpadami/punkt-selektywnej-zbiorki-odpadow;	null;	10:00–18:00;	10:00–18:00;	10:00–18:00;	10:00–18:00;	10:00–18:00;	10:00–15:00;	Zamknięte
Słupeckie Gospodarstwo Komunalne sp. z o.o.;	Wspólna 8;	62-400;	Słupca;	52.280035299999994;	17.88870;	632751829;	https://www.cylex-polska.pl/firmy/s%C5%82upeckie-gospodarstwo-komunalne-sp--z-o-o--w-s%C5%82upcy-10447468.html;	null;	07:00–15:00;	07:00–15:00;	07:00–15:00;	07:00–15:00;	07:00–15:00;	Zamknięte;	Zamknięte
Związek Międzygminny Obra;	Berzyna 6;	64-200;	Berzyna;	52.0986768;	16.11128;	683474270;	http://www.zmobra.pl/;	https://lh5.googleusercontent.com/p/AF1QipMJrXfJbHe-cn7lsk6oG9eGuME_I8mePSl-Y6e8=s0;	07:00–15:00;	07:00–15:00;	07:00–15:00;	07:00–15:00;	07:00–15:00;	Zamknięte;	Zamknięte
Przedsiębiorstwo Gospodarki Komunalnej Sp. z o.o.;	Berzyna 6;	64-200;	Berzyna;	52.098588799999995;	16.111458;	683842525;	https://pgk-wolsztyn.pl;	https://lh5.googleusercontent.com/p/AF1QipMJrXfJbHe-cn7lsk6oG9eGuME_I8mePSl-Y6e8=s0;	07:00–15:00;	07:00–15:00;	07:00–15:00;	07:00–15:00;	07:00–15:00;	Zamknięte;	Zamknięte
Punkt Selektywnej Zbiórki Odpadów Komunalnych (PSZOK);	Niepodległości;	64-510;	Wronki;	52.708943299999994;	16.38117309999999;	672545641;	https://wronki.pl/pszok.html;	null;	08:00–16:00;	07:00–15:00;	07:00–15:00;	07:00–15:00;	07:00–15:00;	08:00–14:00;	Zamknięte
Siwiński Henryk. Wysypisko śmieci;	null;	64-610;	Studzieniec;	52.7004677;	17.036837;	672619394;	null;	null;	10:00–18:00;	Zamknięte;	07:00–15:00;	Zamknięte;	Zamknięte;	Zamknięte;	Zamknięte
PSZOK - Punkt selektywnego skladownia odpadów komunalnych;	Szkolna;	62-080;	Rumianek;	52.4699185;	16.625145;	510911184;	null;	https://lh5.googleusercontent.com/p/AF1QipPEmmJwoOyLDHp8bxRHT3pvN30ISIahgjqoKQw_=s0;	07:00–18:00;	07:00–18:00;	07:00–18:00;	07:00–18:00;	07:00–18:00;	Zamknięte;	Zamknięte
PSZOK Gminy Ryczywół;	Unnamed Road;	64-630;	Ryczywół;	52.821220999999994;	16.831477;	null;	null;	null;	null;	null;	null;	null;	null;	null;	null
Urząd Miejski w Rogoźnie;	Nowa 2;	64-610;	Rogoźno;	52.7495;	16.999499;	672684400;	672684400;	null;	08:00–16:00;	07:00–15:00;	07:00–15:00;	07:00–15:00;	07:00–15:00;	Zamknięte;	Zamknięte
PSZOK Bolechowo – Punkt Selektywnego Zbierania Odpadów Komunalnych;	Poligonowa 1a;	62-005;	Bolechowo;	52.5436924;	16.989294;	607414414;	null;	null;	08:00–17:00;	Zamknięte;	08:00–17:00;	Zamknięte;	08:00–17:00;	08:00–14:00;	Zamknięte
Wywóz i Gospodarka Odpadami - Usługi Pogrzebowe Miejski Zakład Komunalny;	Browarna 6;	64-700;	Czarnków;	52.9044737;	16.557440;	672552453;	http://www.mzk.czarnkow.pl/;	https://lh5.googleusercontent.com/p/AF1QipPsl4WRO-a5ODFDjgphWhujSGffOC7zJpqqtQ6_=s0;	07:00–15:00;	07:00–15:00;	07:00–15:00;	07:00–15:00;	07:00–15:00;	Zamknięte;	Zamknięte
Punkt Selektywnej Zbiórki Odpadów Komunalnych (PSZOK) Gmina Międzychód;	Bolesława Chrobrego 24A;	64-400;	Międzychód;	52.610881899999995;	15.90616479999999;	957482041;	https://miedzychod.pl/strona/menu/147_wazne_informacje_dla_mieszkancow;	null;	Zamknięte;	08:00–17:00;	Zamknięte;	11:00–15:00;	Zamknięte;	Zamknięte;	Zamknięte
PSZOK Kostrzyn;	Sportowa;	66-470;	Kostrzyn nad Odrą;	52.594227499999995;	14.655163;	null;	null;	null;	Zamknięte;	10:00–18:00;	10:00–18:00;	10:00–18:00;	10:00–18:00;	10:00–15:00;	Zamknięte
LS-Plus Sp. z o.o. PW;	Przemysłowa;	64-330;	Opalenica;	52.326202699999996;	16.40203;	614475171;	http://lsplus.pl/odpadykomunalne/;	https://lh5.googleusercontent.com/p/AF1QipPvFUyrpuHO1642hi4fq43P9vD-BOWCeO1PoD3B=s0;	07:00–16:00;	07:00–16:00;	07:00–16:00;	07:00–16:00;	07:00–16:00;	07:00–10:00;	Zamknięte
Składowisko odpadów;	null;	64-330;	Opalenica;	52.3386077;	16.399789;	null;	null;	null;	null;	null;	null;	null;	null;	null;	null
Punkt Selektywnej Zbiórki Odpadów Komunalnych - PSZOK Przemęt - PGO ZAJĄC;	Starkowska 10;	64-234;	Przemęt;	51.998614499999995;	16.30607;	601055363;	http://www.pgozajac.pl/;	https://lh5.googleusercontent.com/p/AF1QipMgs2oH325VOEgaLYYyXGeMRCG0Dq_2dpQOKLkj=s0;	08:00–17:00;	08:00–17:00;	08:00–17:00;	08:00–17:00;	08:00–17:00;	08:00–14:00;	Zamknięte
Zakład Komunalny w Pobiedziskach Sp. z o.o.;	Poznańska 58;	62-010;	Pobiedziska;	52.4755529;	17.267334;	618177074;	https://zk-pobiedziska.pl;	https://lh5.googleusercontent.com/p/AF1QipOnvADk-urrX0qllk565XLjH3dO2iSo3REemAHS=s0;	07:30–14:00;	07:30–14:00;	07:30–14:00;	07:30–14:00;	07:30–14:00;	Zamknięte;	Zamknięte
Zakład Oczyszczania Miasta (ZOM);	Unnamed Road;	62-010;	Pobiedziska;	52.481961399999996;	17.259580;	null;	null;	null;	null;	null;	null;	null;	null;	null;	null
Komunalne wysypisko odpadów stałych;	null;	62-010;	Wagowo;	52.491723699999994;	17.258187;	618177031;	null;	null;	null;	null;	null;	null;	null;	null;	null
PSZOK Pniewy;	Strzelecka 18L;	62-045;	Pniewy;	52.498615699999995;	16.250464;	null;	null;	https://lh5.googleusercontent.com/p/AF1QipPp8WstLC1WONu3i5C6TfooMT18l4f1aT3jnj7_=s0;	10:00–17:00;	Zamknięte;	10:00–17:00;	10:00–17:00;	10:00–17:00;	09:00–15:00;	Zamknięte
Zakład Gospodarki Komunalnej w Witkowie;	Wrzesińska 12;	62-230;	Witkowo;	52.4331026;	17.770291;	614778197;	https://www.zgk-witkowo.pl;	null;	null;	null;	null;	null;	null;	null;	null
Punkt Selektywnej Zbiórki Odpadów Komunalnych;	Bagienna 77;	88-101;	Inowrocław;	52.7582125;	18.229006;	523527613;	http://www.pgkim.inowroclaw.pl/;	https://lh5.googleusercontent.com/p/AF1QipO9bGCNv5ZE1qKaP16Li1hGBuIV1AZ7KiSMrOvR=s0;	07:30–18:00;	07:30–15:30;	07:30–18:00;	07:30–15:30;	07:30–15:30;	10:00–13:00;	Zamknięte
Remondis Aqua Trzemeszno sp. z.o.o;	1 Maja 21;	62-240;	Trzemeszno;	52.5587333;	17.819884;	614154308;	null;	null;	08:00–15:00;	07:00–14:00;	07:00–14:00;	07:00–14:00;	07:00–14:00;	Zamknięte;	Zamknięte
Trzemeszeńskie Przedsiębiorstwo Komunalne;	1 Maja 10;	62-240;	Trzemeszno;	52.5594356;	17.82064279999999;	614154302;	http://www.bip.trzemeszno.pl/content.php?cms_id=144;	null;	null;	null;	null;	null;	null;	null;	null
PSZOK Koszanowo;	Przemysłowa 10;	64-030;	Koszanowo;	52.018277;	16.554116;	null;	null;	null;	14:00–18:00;	10:00–14:00;	Zamknięte;	14:00–18:00;	14:00–18:00;	10:00–14:00;	Zamknięte
PSZOK Rzęczkowo (Punkt Selektywnej Zbiórki Odpadów Komunalnych);	null;	87-134;	Rzęczkowo;	53.1328779;	18.3633651;	null;	https://www.zlawies.pl/8692,pszok-w-rzeczkowie;	https://lh5.googleusercontent.com/p/AF1QipNn1zZrP1ADnZQ_WDZWd4SmDLuqAofy4Om28Hxz=s0;	08:00–14:00;	08:00–14:00;	08:00–14:00;	08:00–14:00;	12:00–18:00;	09:00–13:00;	Zamknięte
Zakład Usług Komunalnych;	Topolowa 31a;	64-360;	Zbąszyń;	52.2603699;	15.912472;	683846243;   http://zuk.zbaszyn.pl;	https://lh5.googleusercontent.com/p/AF1QipPRD0NfOITk5W91vJchYV5lCnXPBl_AlQHcPrUI=s0;	07:00–15:00;	07:00–15:00;	07:00–15:00;	07:00–15:00;	07:00–15:00;	Zamknięte;	Zamknięte
PSZOK - Punkt selektywnego zbierania odpadów komunalnych w Koźminie Wielkopolskim;	Prosta;	63-720;	Koźmin Wielkopolski;	51.8297952;	17.439187;	501512402;	null;	null;	Zamknięte;	12:00–18:00;	10:00–16:00;	12:00–18:00;	10:00–16:00;	08:00–14:00;	Zamknięte